{"type": "FeatureCollection", "features": [ {"type": "Feature", "properties": {"norad_id": 31882, "name": "FENGYUN 1C DEB", "group": "fengyun-1c-debris", "lat": -15.019022182944187, "lon": 81.30033701462258, "alt_km": 836.1959706301832, "timestamp": "2025-12-07T03:52:32.781832+00:00", "meta": {"OBJECT_NAME": "FENGYUN 1C DEB", "OBJECT_ID": "1999-025CKH", "EPOCH": "2025-12-04T12:04:11.131104", "MEAN_MOTION": 14.12940251, "ECCENTRICITY": 0.0035445, "INCLINATION": 98.9162, "RA_OF_ASC_NODE": 261.0675, "ARG_OF_PERICENTER": 248.9848, "MEAN_ANOMALY": 110.7531, "EPHEMERIS_TYPE": 0, "CLASSIFICATION_TYPE": "U", "NORAD_CAT_ID": 31882, "ELEMENT_SET_NO": 999, "REV_AT_EPOCH": 58520, "BSTAR": 0.0011941, "MEAN_MOTION_DOT": 2.193e-05, "MEAN_MOTION_DDOT": 0}, "tle": {"line1": "1 31882U 99025CKH 25338.50290661  .00002193  00000+0  11941-2 0  9999", "line2": "2 31882  98.9162 261.0675 0035445 248.9848 110.7531 14.12940251585207"}}, "geometry": {"type": "Point", "coordinates": [81.30033701462258, -15.019022182944187]}}, {"type": "Feature", "properties": {"norad_id": 31883, "name": "FENGYUN 1C DEB", "group": "fengyun-1c-debris", "lat": -58.34629493578417, "lon": 62.275045987376565, "alt_km": 754.2065420359759, "timestamp": "2025-12-07T03:52:32.781842+00:00", "meta": {"OBJECT_NAME": "FENGYUN 1C DEB", "OBJECT_ID": "1999-025CKJ", "EPOCH": "2025-12-06T05:31:36.189408", "MEAN_MOTION": 14.67656336, "ECCENTRICITY": 0.01251985, "INCLINATION": 99.0279, "RA_OF_ASC_NODE": 256.1942, "ARG_OF_PERICENTER": 89.0094, "MEAN_ANOMALY": 272.545, "EPHEMERIS_TYPE": 0, "CLASSIFICATION_TYPE": "U", "NORAD_CAT_ID": 31883, "ELEMENT_SET_NO": 999, "REV_AT_EPOCH": 97883, "BSTAR": 0.0012344333, "MEAN_MOTION_DOT": 7.845e-05, "MEAN_MOTION_DDOT": 0}, "tle": {"line1": "1 31883U 99025CKJ 25340.23027997  .00007845  00000+0  12344-2 0  9990", "line2": "2 31883  99.0279 256.1942 0125198  89.0094 272.5450 14.67656336978833"}}, "geometry": {"type": "Point", "coordinates": [62.275045987376565, -58.34629493578417]}}, {"type": "Feature", "properties": {"norad_id": 31887, "name": "FENGYUN 1C DEB", "group": "fengyun-1c-debris", "lat": -38.04667425101429, "lon": -155.60192209294135, "alt_km": 723.3728495803616, "timestamp": "2025-12-07T03:52:32.781852+00:00", "meta": {"OBJECT_NAME": "FENGYUN 1C DEB", "OBJECT_ID": "1999-025CKN", "EPOCH": "2025-12-06T10:24:10.260576", "MEAN_MOTION": 14.57715453, "ECCENTRICITY": 0.0024304, "INCLINATION": 99.5345, "RA_OF_ASC_NODE": 31.1232, "ARG_OF_PERICENTER": 24.1294, "MEAN_ANOMALY": 336.1034, "EPHEMERIS_TYPE": 0, "CLASSIFICATION_TYPE": "U", "NORAD_CAT_ID": 31887, "ELEMENT_SET_NO": 999, "REV_AT_EPOCH": 96516, "BSTAR": 0.0019004509, "MEAN_MOTION_DOT": 8.664e-05, "MEAN_MOTION_DDOT": 0}, "tle": {"line1": "1 31887U 99025CKN 25340.43345209  .00008664  00000+0  19005-2 0  9996", "line2": "2 31887  99.5345  31.1232 0024304  24.1294 336.1034 14.57715453965160"}}, "geometry": {"type": "Point", "coordinates": [-155.60192209294135, -38.04667425101429]}}, {"type": "Feature", "properties": {"norad_id": 31888, "name": "FENGYUN 1C DEB", "group": "fengyun-1c-debris", "lat": 9.667400747721132, "lon": -94.33167637943619, "alt_km": 789.3566196333186, "timestamp": "2025-12-07T03:52:32.781863+00:00", "meta": {"OBJECT_NAME": "FENGYUN 1C DEB", "OBJECT_ID": "1999-025CKP", "EPOCH": "2025-12-06T12:45:25.766208", "MEAN_MOTION": 14.33831773, "ECCENTRICITY": 0.00177321, "INCLINATION": 99.1515, "RA_OF_ASC_NODE": 266.5759, "ARG_OF_PERICENTER": 237.331, "MEAN_ANOMALY": 122.6163, "EPHEMERIS_TYPE": 0, "CLASSIFICATION_TYPE": "U", "NORAD_CAT_ID": 31888, "ELEMENT_SET_NO": 999, "REV_AT_EPOCH": 95548, "BSTAR": 0.0034906927, "MEAN_MOTION_DOT": 9.694e-05, "MEAN_MOTION_DDOT": 0}, "tle": {"line1": "1 31888U 99025CKP 25340.53154822  .00009694  00000+0  34907-2 0  9999", "line2": "2 31888  99.1515 266.5759 0017732 237.3310 122.6163 14.33831773955481"}}, "geometry": {"type": "Point", "coordinates": [-94.33167637943619, 9.667400747721132]}}, {"type": "Feature", "properties": {"norad_id": 31890, "name": "FENGYUN 1C DEB", "group": "fengyun-1c-debris", "lat": 12.549362937333509, "lon": 174.8099472931392, "alt_km": 860.7061884220257, "timestamp": "2025-12-07T03:52:32.781874+00:00", "meta": {"OBJECT_NAME": "FENGYUN 1C DEB", "OBJECT_ID": "1999-025CKR", "EPOCH": "2025-12-06T06:38:33.647712", "MEAN_MOTION": 14.10128499, "ECCENTRICITY": 0.00715616, "INCLINATION": 98.7188, "RA_OF_ASC_NODE": 351.9949, "ARG_OF_PERICENTER": 260.8178, "MEAN_ANOMALY": 98.4892, "EPHEMERIS_TYPE": 0, "CLASSIFICATION_TYPE": "U", "NORAD_CAT_ID": 31890, "ELEMENT_SET_NO": 999, "REV_AT_EPOCH": 64061, "BSTAR": 0.00018763219, "MEAN_MOTION_DOT": 2.96e-06, "MEAN_MOTION_DDOT": 0}, "tle": {"line1": "1 31890U 99025CKR 25340.27677833  .00000296  00000+0  18763-3 0  9997", "line2": "2 31890  98.7188 351.9949 0071561 260.8178  98.4892 14.10128499640612"}}, "geometry": {"type": "Point", "coordinates": [174.8099472931392, 12.549362937333509]}}, {"type": "Feature", "properties": {"norad_id": 31891, "name": "FENGYUN 1C DEB", "group": "fengyun-1c-debris", "lat": -57.82418933599187, "lon": 161.13821111009437, "alt_km": 893.8890639541924, "timestamp": "2025-12-07T03:52:32.781884+00:00", "meta": {"OBJECT_NAME": "FENGYUN 1C DEB", "OBJECT_ID": "1999-025CKS", "EPOCH": "2025-12-06T00:20:55.229568", "MEAN_MOTION": 13.66193809, "ECCENTRICITY": 0.0224822, "INCLINATION": 99.4024, "RA_OF_ASC_NODE": 355.2939, "ARG_OF_PERICENTER": 200.6432, "MEAN_ANOMALY": 158.5519, "EPHEMERIS_TYPE": 0, "CLASSIFICATION_TYPE": "U", "NORAD_CAT_ID": 31891, "ELEMENT_SET_NO": 999, "REV_AT_EPOCH": 92318, "BSTAR": 0.00081038713, "MEAN_MOTION_DOT": 7.52e-06, "MEAN_MOTION_DDOT": 0}, "tle": {"line1": "1 31891U 99025CKS 25340.01452812  .00000752  00000+0  81039-3 0  9991", "line2": "2 31891  99.4024 355.2939 0224822 200.6432 158.5519 13.66193809923188"}}, "geometry": {"type": "Point", "coordinates": [161.13821111009437, -57.82418933599187]}}, {"type": "Feature", "properties": {"norad_id": 31892, "name": "FENGYUN 1C DEB", "group": "fengyun-1c-debris", "lat": 62.05766501505199, "lon": -11.586973826206139, "alt_km": 890.1167035886792, "timestamp": "2025-12-07T03:52:32.781894+00:00", "meta": {"OBJECT_NAME": "FENGYUN 1C DEB", "OBJECT_ID": "1999-025CKT", "EPOCH": "2025-11-28T17:42:34.843392", "MEAN_MOTION": 14.41106242, "ECCENTRICITY": 0.01997526, "INCLINATION": 99.2904, "RA_OF_ASC_NODE": 141.2838, "ARG_OF_PERICENTER": 327.726, "MEAN_ANOMALY": 31.1829, "EPHEMERIS_TYPE": 0, "CLASSIFICATION_TYPE": "U", "NORAD_CAT_ID": 31892, "ELEMENT_SET_NO": 999, "REV_AT_EPOCH": 64704, "BSTAR": 0.00049032376, "MEAN_MOTION_DOT": 1.94e-05, "MEAN_MOTION_DDOT": 0}, "tle": {"line1": "1 31892U 99025CKT 25332.73790328  .00001940  00000+0  49032-3 0  9996", "line2": "2 31892  99.2904 141.2838 0199752 327.7260  31.1829 14.41106242647045"}}, "geometry": {"type": "Point", "coordinates": [-11.586973826206139, 62.05766501505199]}}, {"type": "Feature", "properties": {"norad_id": 31893, "name": "FENGYUN 1C DEB", "group": "fengyun-1c-debris", "lat": 34.60907966614847, "lon": -67.44990300151838, "alt_km": 600.2501638267304, "timestamp": "2025-12-07T03:52:32.782201+00:00", "meta": {"OBJECT_NAME": "FENGYUN 1C DEB", "OBJECT_ID": "1999-025CKU", "EPOCH": "2025-12-06T15:24:49.298400", "MEAN_MOTION": 14.63704215, "ECCENTRICITY": 0.01754464, "INCLINATION": 99.0692, "RA_OF_ASC_NODE": 298.3073, "ARG_OF_PERICENTER": 345.4449, "MEAN_ANOMALY": 193.6671, "EPHEMERIS_TYPE": 0, "CLASSIFICATION_TYPE": "U", "NORAD_CAT_ID": 31893, "ELEMENT_SET_NO": 999, "REV_AT_EPOCH": 98315, "BSTAR": 0.00080045575, "MEAN_MOTION_DOT": 5.148e-05, "MEAN_MOTION_DDOT": 0}, "tle": {"line1": "1 31893U 99025CKU 25340.64223725  .00005148  00000+0  80046-3 0  9992", "line2": "2 31893  99.0692 298.3073 0175446 345.4449 193.6671 14.63704215983155"}}, "geometry": {"type": "Point", "coordinates": [-67.44990300151838, 34.60907966614847]}}, {"type": "Feature", "properties": {"norad_id": 31895, "name": "FENGYUN 1C DEB", "group": "fengyun-1c-debris", "lat": -53.9441429741005, "lon": 177.59274204659252, "alt_km": 822.4174590332423, "timestamp": "2025-12-07T03:52:32.782239+00:00", "meta": {"OBJECT_NAME": "FENGYUN 1C DEB", "OBJECT_ID": "1999-025CKW", "EPOCH": "2025-12-04T08:23:00.168864", "MEAN_MOTION": 13.75460226, "ECCENTRICITY": 0.02263483, "INCLINATION": 99.1028, "RA_OF_ASC_NODE": 7.6273, "ARG_OF_PERICENTER": 251.6022, "MEAN_ANOMALY": 106.0398, "EPHEMERIS_TYPE": 0, "CLASSIFICATION_TYPE": "U", "NORAD_CAT_ID": 31895, "ELEMENT_SET_NO": 999, "REV_AT_EPOCH": 61781, "BSTAR": 0.0039968239, "MEAN_MOTION_DOT": 4.593e-05, "MEAN_MOTION_DDOT": 0}, "tle": {"line1": "1 31895U 99025CKW 25338.34930751  .00004593  00000+0  39968-2 0  9991", "line2": "2 31895  99.1028   7.6273 0226348 251.6022 106.0398 13.75460226617811"}}, "geometry": {"type": "Point", "coordinates": [177.59274204659252, -53.9441429741005]}}, {"type": "Feature", "properties": {"norad_id": 31898, "name": "FENGYUN 1C DEB", "group": "fengyun-1c-debris", "lat": 17.000910561420735, "lon": -157.11732396216357, "alt_km": 744.5052878240758, "timestamp": "2025-12-07T03:52:32.782257+00:00", "meta": {"OBJECT_NAME": "FENGYUN 1C DEB", "OBJECT_ID": "1999-025CKZ", "EPOCH": "2025-12-01T10:24:18.717408", "MEAN_MOTION": 14.68161711, "ECCENTRICITY": 0.0144488, "INCLINATION": 98.7075, "RA_OF_ASC_NODE": 199.4746, "ARG_OF_PERICENTER": 255.0362, "MEAN_ANOMALY": 103.4807, "EPHEMERIS_TYPE": 0, "CLASSIFICATION_TYPE": "U", "NORAD_CAT_ID": 31898, "ELEMENT_SET_NO": 999, "REV_AT_EPOCH": 65546, "BSTAR": 0.0015288395, "MEAN_MOTION_DOT": 0.00010252, "MEAN_MOTION_DDOT": 0}, "tle": {"line1": "1 31898U 99025CKZ 25335.43354997  .00010252  00000+0  15288-2 0  9991", "line2": "2 31898  98.7075 199.4746 0144488 255.0362 103.4807 14.68161711655464"}}, "geometry": {"type": "Point", "coordinates": [-157.11732396216357, 17.000910561420735]}}]}